ION SCV-004             
1 50993U 22002K   26068.68892644  .00006538  00000+0  23198-3 0  9998
2 50993  97.2961 128.2294 0007216   1.6783 358.4480 15.29369331230088
STARLINK-32678          
1 62309U 24239J   26068.63581985  .00019883  00000+0  68165-3 0  9994
2 62309  53.1608 181.5302 0000808 116.9668 243.1415 15.30198558 69558
